FENGYUN 2F              
1 38049U 12002A   22361.73754031 -.00000357  00000+0  00000+0 0  9997
2 38049   4.2658  78.1877 0000960 281.4947 113.6826  1.00283375 40177
METEOSAT-10 (MSG-3)     
1 38552U 12035B   22361.78076691  .00000063  00000+0  00000+0 0  9999
2 38552   1.8442  50.4984 0001065 181.1580 155.1213  1.00272209 38147
METOP-B                 
1 38771U 12049A   22361.78199222  .00000135  00000+0  81695-4 0  9997
2 38771  98.7051  58.8107 0001211 128.3569 341.9824 14.21489257533203
FENGYUN 3C              
1 39260U 13052A   22361.81929550  .00000090  00000+0  66498-4 0  9999
2 39260  98.4392  19.9972 0012216  78.3799 281.8734 14.15970396479287
METEOR-M 2              
1 40069U 14037A   22361.78589271  .00000039  00000+0  37077-4 0  9994
2 40069  98.4256  10.7112 0006696 115.4733 244.7125 14.20731769439313
HIMAWARI-8              
1 40267U 14060A   22361.80691644 -.00000274  00000+0  00000+0 0  9994
2 40267   0.0161 185.6101 0001072 109.5524 232.2494  1.00270299 30051
FENGYUN 2G              
1 40367U 14090A   22361.79872292 -.00000301  00000+0  00000+0 0  9997
2 40367   2.4210  87.5042 0000538 253.8528 141.7428  1.00282869 29291
METEOSAT-11 (MSG-4)     
1 40732U 15034A   22361.77893646 -.00000001  00000+0  00000+0 0  9993
2 40732   0.4684 357.7805 0000517  83.4906 295.4601  1.00274561 27314
ELEKTRO-L 2             
1 41105U 15074A   22361.91950713 -.00000115  00000+0  00000+0 0  9993
2 41105   3.4732  85.8560 0002512 157.9762 169.1148  1.00271509 25801
HIMAWARI-9              
1 41836U 16064A   22361.82503986 -.00000273  00000+0  00000+0 0  9995
2 41836   0.0394 167.8755 0000981 141.8268 224.3510  1.00271192 22483
GOES 16                 
1 41866U 16071A   22361.76385691 -.00000246  00000+0  00000+0 0  9990
2 41866   0.0791 251.0714 0000574  58.3190 346.6247  1.00271454 22400
FENGYUN 4A              
1 41882U 16077A   22361.94321602 -.00000327  00000+0  00000+0 0  9996
2 41882   0.0308  12.9950 0005791  34.9439 132.5893  1.00266403 22272
CYGFM05                 
1 41884U 16078A   22361.61329902  .00004587  00000+0  22372-3 0  9995
2 41884  34.9567  77.7932 0014132  20.6813 339.4469 15.17641742334238
CYGFM04                 
1 41885U 16078B   22361.53030166  .00004368  00000+0  20982-3 0  9990
2 41885  34.9500  66.4379 0012386  39.2727 320.8881 15.18198600334171
CYGFM02                 
1 41886U 16078C   22361.58194010  .00004766  00000+0  22848-3 0  9990
2 41886  34.9591  68.3869 0013127  33.4011 326.7527 15.18241074334269
CYGFM01                 
1 41887U 16078D   22361.64031936  .00004251  00000+0  20862-3 0  9998
2 41887  34.9532  80.3326 0014580  20.0776 340.0507 15.17437758334083
CYGFM08                 
1 41888U 16078E   22361.56364555  .00004464  00000+0  21595-3 0  9996
2 41888  34.9502  72.5294 0013663  32.8282 327.3276 15.17935128334212
CYGFM07                 
1 41890U 16078G   22361.55342331  .00004653  00000+0  22356-3 0  9992
2 41890  34.9522  66.0827 0011934  37.6595 322.4952 15.18182561334185
CYGFM03                 
1 41891U 16078H   22361.55194788  .00004623  00000+0  22212-3 0  9992
2 41891  34.9554  66.6102 0011468  35.2331 324.9138 15.18185811334327
FENGYUN 3D              
1 43010U 17072A   22361.81093254  .00000074  00000+0  56944-4 0  9993
2 43010  98.8402 305.6416 0002425  79.1479 280.9978 14.19121794265191
NOAA 20                 
1 43013U 17073A   22361.91468190  .00000097  00000+0  66766-4 0  9991
2 43013  98.7371 297.5922 0000887 117.2897 242.8370 14.19539166264678
GOES 17                 
1 43226U 18022A   22361.60803441  .00000101  00000+0  00000+0 0  9990
2 43226   0.0417 186.0884 0000195 112.0158 239.5070  1.00270845 17718
FENGYUN 2H              
1 43491U 18050A   22361.79471332 -.00000127  00000+0  00000+0 0  9994
2 43491   1.6394  93.7395 0002401  72.4645 295.3122  1.00274186 16737
METOP-C                 
1 43689U 18087A   22361.79700524  .00000127  00000+0  78244-4 0  9990
2 43689  98.7097  58.8754 0003156 179.6754 180.4426 14.21495130214779
GEO-KOMPSAT-2A          
1 43823U 18100A   22361.23060934 -.00000342  00000+0  00000+0 0  9999
2 43823   0.0526 126.0933 0000404 316.9803 223.8780  1.00269194 14903
METEOR-M2 2             
1 44387U 19038A   22361.83839202  .00000031  00000+0  33078-4 0  9994
2 44387  98.7510 321.3227 0002354  78.5856 281.5584 14.23736718180926
FENGYUN 3E              
1 49008U 21062A   22361.82600391  .00000030  00000+0  34665-4 0  9995
2 49008  98.7171   0.7918 0002462 127.7857 232.3537 14.19750516 76751
GOES 18                 
1 51850U 22021A   22361.36577071  .00000099  00000+0  00000+0 0  9992
2 51850   0.0434 186.7949 0000853  68.6026 195.1663  1.00270495  3068
NOAA 21 (JPSS-2)        
1 54234U 22150A   22361.79158352  .00000113  00000+0  74261-4 0  9990
2 54234  98.7010 297.5770 0001093  86.4245 273.7056 14.19549129  6735
METEOSAT-12             
1 54743U 22170C   22353.31524981 -.00000002  00000+0  00000+0 0  9994
2 54743   5.5504 217.8990 7131836 181.4542 110.3708  2.25104636   115
COSMOS 2564 [GLONASS-M] 
1 54377U 22161A   22361.58594159  .00000034  00000+0  00000+0 0  9993
2 54377  64.7748 234.9583 0006960 216.4620   1.5632  2.13102339   618
FREGAT R/B              
1 54378U 22161B   22332.88538517  .00000006  00000+0  00000+0 0  9990
2 54378  64.7543 235.8312 0069964  61.3586  78.3433  2.10629160    00
SHENZHOU-15             
1 54379U 22162A   22361.59836519  .00018040  00000+0  22093-3 0  9992
2 54379  41.4754 121.5407 0005083 227.4963 141.2347 15.59931730 95003
COSMOS 2565             
1 54381U 22163A   22361.80457034 -.00000036  00000+0  28145-4 0  9993
2 54381  67.1560 307.6293 0006790 264.9234  95.1080 13.96674139  3780
SL-4 R/B                
1 54382U 22163B   22361.71492008  .00148307  87009-5  72367-3 0  9991
2 54382  67.1327 295.8637 0441474  67.4147 297.3074 15.08685153  4045
2022-163C               
1 54383U 22163C   22362.08199635  .00000001  00000+0  54454-4 0  9999
2 54383  67.1427 306.8790 0011739 311.5863  48.4215 13.97327419  3512
1998-067UL              
1 54534U 98067UL  22361.00181355  .00050379  00000+0  80732-3 0  9994
2 54534  51.6414 101.1346 0004752 221.0736 138.9897 15.52574369  3880
1998-067UM              
1 54535U 98067UM  22362.10506292  .00052531  00000+0  82878-3 0  9993
2 54535  51.6426  95.6163 0004351 225.6296 197.7662 15.52990888  4055
1998-067UN              
1 54536U 98067UN  22362.10865275  .00040670  00000+0  65623-3 0  9993
2 54536  51.6435  95.6384 0005189 221.2158 202.1275 15.52476470  4013
1998-067UP              
1 54537U 98067UP  22361.85628563  .00045654  00000+0  72934-3 0  9992
2 54537  51.6431  96.8689 0005019 225.8046 237.5961 15.52702455  4018
2022-164A               
1 54588U 22164A   22361.80629311  .00000726  00000+0  22237-3 0  9992
2 54588  98.3553  28.8367 0009069 211.2470 148.8164 14.44551961  3005
KZ-11 R/B               
1 54589U 22164B   22361.99959328  .00019918  22838-5  22356-3 0  9991
2 54589  98.3683  31.2705 0378754  35.1873 327.3761 15.08178668  3168
2022-165A               
1 54640U 22165A   22361.81051957  .00000496  00000+0  11839-3 0  9998
2 54640  98.1187 299.8789 0001067  95.1124 265.0212 14.57770776  2789
2022-165B               
1 54641U 22165B   22361.79931987  .00000530  00000+0  10622-3 0  9994
2 54641  98.0300 299.7420 0033535 241.0641 118.7209 14.65368443  2781
ONEWEB-0527             
1 54642U 22166A   22361.69975961  .00003063  00000+0  30530-3 0  9999
2 54642  86.5177 150.0555 0008934 165.5056 194.6429 14.91220781  3115
ONEWEB-0528             
1 54643U 22166B   22361.76708376  .00003174  00000+0  31662-3 0  9992
2 54643  86.5190 150.0289 0008889 165.8914 194.2563 14.91205589  3125
ONEWEB-0539             
1 54644U 22166C   22361.76363304 -.00001765  00000+0 -17968-3 0  9990
2 54644  86.5174 150.0214 0010282 164.6065 195.5477 14.91459072  3126
ONEWEB-0540             
1 54645U 22166D   22361.83558640  .00009396  00000+0  94443-3 0  9997
2 54645  86.5159 149.9916 0008876 168.0510 192.0930 14.91114114  3564
ONEWEB-0542             
1 54646U 22166E   22361.88613811 -.00001571  00000+0 -15651-3 0  9998
2 54646  86.5179 149.9578 0013427 173.7607 186.3791 14.92382771  3567
ONEWEB-0545             
1 54647U 22166F   22361.76777169  .00003109  00000+0  31050-3 0  9991
2 54647  86.5159 150.0218 0008792 167.3142 192.8308 14.91150726  3559
ONEWEB-0580             
1 54648U 22166G   22361.68827842  .00003070  00000+0  29877-3 0  9998
2 54648  86.5165 150.0474 0013181 171.8112 188.3334 14.92137794  3095
ONEWEB-0582             
1 54649U 22166H   22361.76148586  .00003153  00000+0  31090-3 0  9991
2 54649  86.5173 150.0192 0011050 164.8288 195.3273 14.91649401  3105
ONEWEB-0583             
1 54650U 22166J   22361.69247170  .00002515  00000+0  24638-3 0  9995
2 54650  86.5178 150.0507 0011699 164.9735 195.1843 14.91806449  3095
ONEWEB-0584             
1 54651U 22166K   22361.76044340  .00003105  00000+0  30538-3 0  9990
2 54651  86.5172 150.0187 0011368 165.1743 194.9821 14.91735523  3108
ONEWEB-0585             
1 54652U 22166L   22361.76396728  .00003082  00000+0  30531-3 0  9998
2 54652  86.5180 150.0247 0010129 164.2547 195.8998 14.91453507  3554
ONEWEB-0586             
1 54653U 22166M   22361.70330534  .00003091  00000+0  31032-3 0  9993
2 54653  86.5197 150.0623 0008209 172.6265 187.5084 14.90938761  3099
ONEWEB-0587             
1 54654U 22166N   22361.76216899 -.00004795  00000+0 -48191-3 0  9995
2 54654  86.5185 150.0265 0010771 164.6598 195.4958 14.91560143  3102
ONEWEB-0589             
1 54655U 22166P   22361.14919577  .00001006  00000+0  95389-4 0  9993
2 54655  86.5169 150.2844 0013298 176.2557 183.8773 14.92346923  3016
ONEWEB-0590             
1 54656U 22166Q   22361.55252831  .00003132  00000+0  30381-3 0  9994
2 54656  86.5164 150.1055 0013149 173.4362 186.7041 14.92268761  3072
